{
    "links": {
        "self": "http://www.neowsapp.com/rest/v1/neo/3638572?api_key=iIulBulltgU6a56xZRHN4H3l9WmuAYTsLGpBGhQ2"
    },
    "id": "3638572",
    "neo_reference_id": "3638572",
    "name": "(2013 JA36)",
    "designation": "2013 JA36",
    "nasa_jpl_url": "http://ssd.jpl.nasa.gov/sbdb.cgi?sstr=3638572",
    "absolute_magnitude_h": 21.0,
    "estimated_diameter": {
        "kilometers": {
            "estimated_diameter_min": 0.1677084622,
            "estimated_diameter_max": 0.3750075218
        },
        "meters": {
            "estimated_diameter_min": 167.7084621628,
            "estimated_diameter_max": 375.0075217981
        },
        "miles": {
            "estimated_diameter_min": 0.1042091748,
            "estimated_diameter_max": 0.2330187988
        },
        "feet": {
            "estimated_diameter_min": 550.2246310023,
            "estimated_diameter_max": 1230.3396778159
        }
    },
    "is_potentially_hazardous_asteroid": false,
    "close_approach_data": [
        {
            "close_approach_date": "2013-05-06",
            "close_approach_date_full": "2013-May-06 14:30",
            "epoch_date_close_approach": 1367850600000,
            "relative_velocity": {
                "kilometers_per_second": "36.3456580237",
                "kilometers_per_hour": "130844.3688852437",
                "miles_per_hour": "81301.6024331671"
            },
            "miss_distance": {
                "astronomical": "0.1531049233",
                "lunar": "59.5578151637",
                "kilometers": "22904170.412193371",
                "miles": "14231991.5479196798"
            },
            "orbiting_body": "Earth"
        }
    ],
    "orbital_data": {
        "orbit_id": "8",
        "orbit_determination_date": "2017-04-06 08:45:47",
        "first_observation_date": "2013-05-15",
        "last_observation_date": "2013-05-29",
        "data_arc_in_days": 14,
        "observations_used": 47,
        "orbit_uncertainty": "8",
        "minimum_orbit_intersection": ".0895058",
        "jupiter_tisserand_invariant": "2.286",
        "epoch_osculation": "2456431.5",
        "eccentricity": ".9484240815644867",
        "semi_major_axis": "2.666996062882736",
        "inclination": "42.50614751797151",
        "ascending_node_longitude": "56.30541745824561",
        "orbital_period": "1590.860097031096",
        "perihelion_distance": ".1375527714070752",
        "perihelion_argument": "31.46443574015548",
        "aphelion_distance": "5.196439354358396",
        "perihelion_time": "2456379.618535433992",
        "mean_anomaly": "11.74039582652113",
        "mean_motion": ".226292683229557",
        "equinox": "J2000",
        "orbit_class": {
            "orbit_class_type": "APO",
            "orbit_class_description": "Near-Earth asteroid orbits which cross the Earth’s orbit similar to that of 1862 Apollo",
            "orbit_class_range": "a (semi-major axis) > 1.0 AU; q (perihelion) < 1.017 AU"
        }
    },
    "is_sentry_object": false
}